BusinessName,Address,City,State,ZipCode,Email,OwnerName
BROADWAY MECHANICAL-BIG PIPE JOINT VENTURE,873 81ST AVENUE,OAKLAND,CA,94621,N/A,N/A
L & L GREEN BUILDERS INC,P O BOX 28961,OAKLAND,CA,94612,N/A,N/A
HENLEY ELECTRIC,857 56TH STREET,OAKLAND,CA,94608,N/A,N/A
3RDGEN HEATING AND COOLING,490 LAKE PARK AVE,OAKLAND,CA,94610,N/A,N/A
APPLE HEATING & AIR INC,1540 WELLINGTON STREET,OAKLAND,CA,94602,N/A,N/A
MASTERS,3017 EAST 7TH STREET SUITE A,OAKLAND,CA,94601,N/A,N/A
HEATING EXPERTS,4479 B HOWE ST,OAKLAND,CA,94611,N/A,N/A
CALIFORNIA HVAC,1445 34TH AVENUE UNIT 7213,OAKLAND,CA,94601,N/A,N/A
EHRET CO PLUMBING,887 71ST AVENUE,OAKLAND,CA,94621,N/A,N/A
LI YEN LIN COMPANY INC,1268 48TH AVENUE,OAKLAND,CA,94601,N/A,N/A
MORRISON JOHN INC,1955 MOUNTAIN BLVD STE #115,OAKLAND,CA,94611,N/A,N/A
AIRE INNOVATONS,2310 82ND AVENUE,OAKLAND,CA,94605,N/A,N/A
HVAC OREN SERVICES LLC,10127 DANTE AVE,OAKLAND,CA,94603,N/A,N/A
CARE HEATING & AIR CONDITIONING INC,1482 74TH AVENUE,OAKLAND,CA,94621,N/A,N/A
RED FOX HEATING & COOLING,2546 HAVENSCOURT BLVD,OAKLAND,CA,94605,N/A,N/A
BREATHABLE,344 20TH ST,OAKLAND,CA,94612,N/A,N/A
LACAYO COLT PLUMBING & HEATING INC,4010 COOLIDGE AVENUE,OAKLAND,CA,94602,N/A,N/A
HEROS BUILDERS,5627 TELEGRAPH AVE STE 216,OAKLAND,CA,94609,N/A,N/A
SEASIDE REFRIGERATION,1815 101ST AVENUE,OAKLAND,CA,94603,N/A,N/A
HARRY CLARK HEATING & AIR CONDITIONING INC,3040 BROADWAY,OAKLAND,CA,94611,N/A,N/A
CARTER's HEATING & AIR,5940 HILTON ST,OAKLAND,CA,94605,N/A,N/A
WINTER DOUG,5920 DOVER ST,OAKLAND,CA,94609,N/A,N/A
ADVANCED REFRIGERATION,617 BROOKLYN AVE APT 2,OAKLAND,CA,94606,N/A,N/A
ARJE HEATING & AIR INC,P O BOX 5326,OAKLAND,CA,94605,N/A,N/A
CLARK HARRY PLUMBING AND HEATING INC,3026 BROADWAY,OAKLAND,CA,94611,N/A,N/A
PRISTINE AIR CONDITIONING AND HEATING SERVICE,PO BOX 6313,OAKLAND,CA,94603,N/A,N/A
CARO MASTER BUILDERS INC,1507 3RD STREET,OAKLAND,CA,94607,N/A,N/A
ELDEN PLUMBING INC,1939 21ST AVE APT #B,OAKLAND,CA,94606,N/A,N/A
BROADWAY MECHANICAL - CONTRACTORS INC,873 81ST AVE,OAKLAND,CA,94621,N/A,N/A
HEAVENLY HEATING & AIR INC,385 14TH STREET #3607,OAKLAND,CA,94612,N/A,N/A
ELEMENT HEATING AND AIR,6114 LA SALLE AVE #310,OAKLAND,CA,94611,N/A,N/A
PRO ATTIC INC,833 WALKER AVE #D,OAKLAND,CA,94610,N/A,N/A
AMBIENT EXPERTS HVAC,1445 76TH AVE,OAKLAND,CA,94621,N/A,N/A
PRIME HEATING AND COOLING,8517 EARHART RD #1,OAKLAND,CA,94621,N/A,N/A
ALASKA REFRIGERATION AIR CONDITIONING & HEATING CO,P O BOX 7494,OAKLAND,CA,94601,N/A,N/A
KASHANEH CONSTRUCTION INC,1552 BEACH ST STE T,OAKLAND,CA,94608,N/A,N/A
MONTEREY MECHANICAL CO,8275 SAN LEANDRO STREET,OAKLAND,CA,94621,N/A,N/A
EASE H V A C,2421 21ST AVENUE,OAKLAND,CA,94606,N/A,N/A
ATTIC PROS INC,718 DOUGLAS AVE,OAKLAND,CA,94603,N/A,N/A
RICHARD's PLUMBING AND HEATING,3849 PARK BLVD,OAKLAND,CA,94602,N/A,N/A
HVAC PANDA HOME WIZARDS REMODELING & CONSTRUCTION,10115 DENNY ST,OAKLAND,CA,94603,N/A,N/A
MODERN HEATING AND AIR CONDITIONING,P O BOX 70511,OAKLAND,CA,94612,N/A,N/A
PYRAMIDS HEATING AND AIR,3607 BRIGHTON AVE,OAKLAND,CA,94602,N/A,N/A
TOM's REFRIGERATION HVAC,3045 EASTMAN AVE,OAKLAND,CA,94619,N/A,N/A
DANIEL's HEATING & A/C,1506 57TH AVENUE,OAKLAND,CA,94621,N/A,N/A
MAUCK SHEET METAL,755 INDEPENDENT ROAD,OAKLAND,CA,94621,N/A,N/A
D P HEATING & AIR CONDITIONING,P O BOX 19102,OAKLAND,CA,94619,N/A,N/A
ALL SEASONS HEATING & AIR CONDITIONING,P O BOX 24082,OAKLAND,CA,94623,N/A,N/A
VELASCO's HEATING AND AIR CONDITIONING,3153 DAVIS ST,OAKLAND,CA,94601,N/A,N/A
VELASQUEZ BYRON,2181 E 24TH ST,OAKLAND,CA,94606,N/A,N/A
CAMPBELL J M COMPANY INC,1041 44TH AVENUE,OAKLAND,CA,94601,N/A,N/A
HAMM CONSTRUCTION,3537 FRUITVALE AVE,OAKLAND,CA,94602,N/A,N/A
J & K SHEET METAL CO,1227 20TH AVENUE,OAKLAND,CA,94606,N/A,N/A
ATLAS HEATING & AIR-CONDITIONING CO,1451 32ND STREET,OAKLAND,CA,94608,N/A,N/A
OLYMPIC HEATING AND AIR,1540 WELLINGTON STREET,OAKLAND,CA,94602,N/A,N/A
ENERGREEN MECHANICAL,1434 65TH AVENUE,OAKLAND,CA,94621,N/A,N/A
SPEAGLE MECHANICAL,1163 60TH AVE,OAKLAND,CA,94621,N/A,N/A
SUPREME HEATING,2900 GLASCOCK STREET,OAKLAND,CA,94601,N/A,N/A
CHIEF's REFRIGERATION AIR,1533 78TH AVE,OAKLAND,CA,94621,N/A,N/A
